{"type": "FeatureCollection", "features": [ {"type": "Feature", "properties": {"norad_id": 37216, "name": "COSMO-SKYMED 4", "group": "resource", "lat": -29.331154412336303, "lon": -19.84960781003596, "alt_km": 629.1015868529475, "timestamp": "2025-12-09T05:43:20.384551+00:00", "meta": {"OBJECT_NAME": "COSMO-SKYMED 4", "OBJECT_ID": "2010-060A", "EPOCH": "2025-12-08T19:03:30.623616", "MEAN_MOTION": 14.82161304, "ECCENTRICITY": 0.0001396, "INCLINATION": 97.8802, "RA_OF_ASC_NODE": 164.1764, "ARG_OF_PERICENTER": 78.7063, "MEAN_ANOMALY": 281.4306, "EPHEMERIS_TYPE": 0, "CLASSIFICATION_TYPE": "U", "NORAD_CAT_ID": 37216, "ELEMENT_SET_NO": 999, "REV_AT_EPOCH": 81636, "BSTAR": 0.00014966, "MEAN_MOTION_DOT": 1.14e-05, "MEAN_MOTION_DDOT": 0}, "tle": {"line1": "1 37216U 10060A   25342.79410444  .00001140  00000+0  14966-3 0  9999", "line2": "2 37216  97.8802 164.1764 0001396  78.7063 281.4306 14.82161304816362"}}, "geometry": {"type": "Point", "coordinates": [-19.84960781003596, -29.331154412336303]}}, {"type": "Feature", "properties": {"norad_id": 37387, "name": "RESOURCESAT-2", "group": "resource", "lat": -36.22173926539924, "lon": -139.70029216653307, "alt_km": 830.8297455183338, "timestamp": "2025-12-09T05:43:20.384562+00:00", "meta": {"OBJECT_NAME": "RESOURCESAT-2", "OBJECT_ID": "2011-015A", "EPOCH": "2025-12-08T18:34:17.927040", "MEAN_MOTION": 14.21595083, "ECCENTRICITY": 0.000661, "INCLINATION": 98.7882, "RA_OF_ASC_NODE": 46.3434, "ARG_OF_PERICENTER": 52.9033, "MEAN_ANOMALY": 307.2747, "EPHEMERIS_TYPE": 0, "CLASSIFICATION_TYPE": "U", "NORAD_CAT_ID": 37387, "ELEMENT_SET_NO": 999, "REV_AT_EPOCH": 75912, "BSTAR": 0.00016346, "MEAN_MOTION_DOT": 3.14e-06, "MEAN_MOTION_DDOT": 0}, "tle": {"line1": "1 37387U 11015A   25342.77381860  .00000314  00000+0  16346-3 0  9992", "line2": "2 37387  98.7882  46.3434 0006610  52.9033 307.2747 14.21595083759123"}}, "geometry": {"type": "Point", "coordinates": [-139.70029216653307, -36.22173926539924]}}, {"type": "Feature", "properties": {"norad_id": 37781, "name": "HAIYANG-2A", "group": "resource", "lat": 78.09454575626546, "lon": -67.06743533458295, "alt_km": 959.4582778145941, "timestamp": "2025-12-09T05:43:20.384572+00:00", "meta": {"OBJECT_NAME": "HAIYANG-2A", "OBJECT_ID": "2011-043A", "EPOCH": "2025-12-08T20:36:56.674656", "MEAN_MOTION": 13.78833499, "ECCENTRICITY": 0.0001668, "INCLINATION": 99.3373, "RA_OF_ASC_NODE": 343.8527, "ARG_OF_PERICENTER": 88.4129, "MEAN_ANOMALY": 271.7213, "EPHEMERIS_TYPE": 0, "CLASSIFICATION_TYPE": "U", "NORAD_CAT_ID": 37781, "ELEMENT_SET_NO": 999, "REV_AT_EPOCH": 72045, "BSTAR": -0.00030666, "MEAN_MOTION_DOT": -3.56e-06, "MEAN_MOTION_DDOT": 0}, "tle": {"line1": "1 37781U 11043A   25342.85898929 -.00000356  00000+0 -30666-3 0  9998", "line2": "2 37781  99.3373 343.8527 0001668  88.4129 271.7213 13.78833499720453"}}, "geometry": {"type": "Point", "coordinates": [-67.06743533458295, 78.09454575626546]}}, {"type": "Feature", "properties": {"norad_id": 37791, "name": "RASAT", "group": "resource", "lat": 21.004630375976127, "lon": -104.33060241338801, "alt_km": 665.8657749755021, "timestamp": "2025-12-09T05:43:20.384583+00:00", "meta": {"OBJECT_NAME": "RASAT", "OBJECT_ID": "2011-044D", "EPOCH": "2025-12-08T21:23:04.755264", "MEAN_MOTION": 14.67900875, "ECCENTRICITY": 0.002195, "INCLINATION": 98.0656, "RA_OF_ASC_NODE": 72.2061, "ARG_OF_PERICENTER": 76.4257, "MEAN_ANOMALY": 47.2601, "EPHEMERIS_TYPE": 0, "CLASSIFICATION_TYPE": "U", "NORAD_CAT_ID": 37791, "ELEMENT_SET_NO": 999, "REV_AT_EPOCH": 76526, "BSTAR": 0.00016442, "MEAN_MOTION_DOT": 8.94e-06, "MEAN_MOTION_DDOT": 0}, "tle": {"line1": "1 37791U 11044D   25342.89102726  .00000894  00000+0  16442-3 0  9998", "line2": "2 37791  98.0656  72.2061 0021950  76.4257  47.2601 14.67900875765262"}}, "geometry": {"type": "Point", "coordinates": [-104.33060241338801, 21.004630375976127]}}, {"type": "Feature", "properties": {"norad_id": 37841, "name": "SRMSAT", "group": "resource", "lat": -17.898732756317425, "lon": 11.935383340974202, "alt_km": 846.5890033540154, "timestamp": "2025-12-09T05:43:20.384593+00:00", "meta": {"OBJECT_NAME": "SRMSAT", "OBJECT_ID": "2011-058D", "EPOCH": "2025-12-08T18:35:17.754720", "MEAN_MOTION": 14.11509665, "ECCENTRICITY": 0.0011706, "INCLINATION": 19.9702, "RA_OF_ASC_NODE": 131.9502, "ARG_OF_PERICENTER": 269.448, "MEAN_ANOMALY": 132.3331, "EPHEMERIS_TYPE": 0, "CLASSIFICATION_TYPE": "U", "NORAD_CAT_ID": 37841, "ELEMENT_SET_NO": 999, "REV_AT_EPOCH": 73088, "BSTAR": 0.00016661, "MEAN_MOTION_DOT": 5.72e-06, "MEAN_MOTION_DDOT": 0}, "tle": {"line1": "1 37841U 11058D   25342.77451105  .00000572  00000+0  16661-3 0  9990", "line2": "2 37841  19.9702 131.9502 0011706 269.4480 132.3331 14.11509665730882"}}, "geometry": {"type": "Point", "coordinates": [11.935383340974202, -17.898732756317425]}}, {"type": "Feature", "properties": {"norad_id": 38012, "name": "PLEIADES 1A", "group": "resource", "lat": 69.4955823736613, "lon": 33.43209521056318, "alt_km": 690.1379404208337, "timestamp": "2025-12-09T05:43:20.384604+00:00", "meta": {"OBJECT_NAME": "PLEIADES 1A", "OBJECT_ID": "2011-076F", "EPOCH": "2025-12-08T20:08:38.334048", "MEAN_MOTION": 14.58555657, "ECCENTRICITY": 0.0001345, "INCLINATION": 98.1827, "RA_OF_ASC_NODE": 55.6679, "ARG_OF_PERICENTER": 73.1276, "MEAN_ANOMALY": 63.7029, "EPHEMERIS_TYPE": 0, "CLASSIFICATION_TYPE": "U", "NORAD_CAT_ID": 38012, "ELEMENT_SET_NO": 999, "REV_AT_EPOCH": 74424, "BSTAR": 0.00015695, "MEAN_MOTION_DOT": 6.84e-06, "MEAN_MOTION_DDOT": 0}, "tle": {"line1": "1 38012U 11076F   25342.83933257  .00000684  00000+0  15695-3 0  9991", "line2": "2 38012  98.1827  55.6679 0001345  73.1276  63.7029 14.58555657744247"}}, "geometry": {"type": "Point", "coordinates": [33.43209521056318, 69.4955823736613]}}, {"type": "Feature", "properties": {"norad_id": 38038, "name": "ZIYUAN 1-02C (ZY 1-02C)", "group": "resource", "lat": -56.739851007738366, "lon": -143.75721064565428, "alt_km": 772.1497115008833, "timestamp": "2025-12-09T05:43:20.384614+00:00", "meta": {"OBJECT_NAME": "ZIYUAN 1-02C (ZY 1-02C)", "OBJECT_ID": "2011-079A", "EPOCH": "2025-12-08T20:52:50.800224", "MEAN_MOTION": 14.38005251, "ECCENTRICITY": 0.0006969, "INCLINATION": 98.4337, "RA_OF_ASC_NODE": 48.955, "ARG_OF_PERICENTER": 148.6929, "MEAN_ANOMALY": 342.8385, "EPHEMERIS_TYPE": 0, "CLASSIFICATION_TYPE": "U", "NORAD_CAT_ID": 38038, "ELEMENT_SET_NO": 999, "REV_AT_EPOCH": 73185, "BSTAR": 0.00025127, "MEAN_MOTION_DOT": 7.17e-06, "MEAN_MOTION_DDOT": 0}, "tle": {"line1": "1 38038U 11079A   25342.87003241  .00000717  00000+0  25127-3 0  9995", "line2": "2 38038  98.4337  48.9550 0006969 148.6929 342.8385 14.38005251731854"}}, "geometry": {"type": "Point", "coordinates": [-143.75721064565428, -56.739851007738366]}}, {"type": "Feature", "properties": {"norad_id": 38046, "name": "ZIYUAN 3-1 (ZY 3-1)", "group": "resource", "lat": -14.455624342762865, "lon": -132.28582672232412, "alt_km": 371.0944483030826, "timestamp": "2025-12-09T05:43:20.384625+00:00", "meta": {"OBJECT_NAME": "ZIYUAN 3-1 (ZY 3-1)", "OBJECT_ID": "2012-001A", "EPOCH": "2025-12-08T21:14:11.753664", "MEAN_MOTION": 15.67820521, "ECCENTRICITY": 0.0001953, "INCLINATION": 97.1753, "RA_OF_ASC_NODE": 49.2138, "ARG_OF_PERICENTER": 8.5671, "MEAN_ANOMALY": 351.5623, "EPHEMERIS_TYPE": 0, "CLASSIFICATION_TYPE": "U", "NORAD_CAT_ID": 38046, "ELEMENT_SET_NO": 999, "REV_AT_EPOCH": 77436, "BSTAR": 0.00083903, "MEAN_MOTION_DOT": 0.00092842, "MEAN_MOTION_DDOT": 0}, "tle": {"line1": "1 38046U 12001A   25342.88485826  .00092842  00000+0  83903-3 0  9990", "line2": "2 38046  97.1753  49.2138 0001953   8.5671 351.5623 15.67820521774366"}}, "geometry": {"type": "Point", "coordinates": [-132.28582672232412, -14.455624342762865]}}, {"type": "Feature", "properties": {"norad_id": 38338, "name": "ARIRANG-3 (KOMPSAT-3)", "group": "resource", "lat": -69.50404976987132, "lon": -39.1166802861415, "alt_km": 693.0271444600266, "timestamp": "2025-12-09T05:43:20.384635+00:00", "meta": {"OBJECT_NAME": "ARIRANG-3 (KOMPSAT-3)", "OBJECT_ID": "2012-025B", "EPOCH": "2025-12-08T20:11:24.045792", "MEAN_MOTION": 14.61705591, "ECCENTRICITY": 0.0005635, "INCLINATION": 98.3318, "RA_OF_ASC_NODE": 297.4014, "ARG_OF_PERICENTER": 351.5071, "MEAN_ANOMALY": 8.6033, "EPHEMERIS_TYPE": 0, "CLASSIFICATION_TYPE": "U", "NORAD_CAT_ID": 38338, "ELEMENT_SET_NO": 999, "REV_AT_EPOCH": 72353, "BSTAR": 0.00025683, "MEAN_MOTION_DOT": 1.231e-05, "MEAN_MOTION_DDOT": 0}, "tle": {"line1": "1 38338U 12025B   25342.84125053  .00001231  00000+0  25683-3 0  9992", "line2": "2 38338  98.3318 297.4014 0005635 351.5071   8.6033 14.61705591723536"}}, "geometry": {"type": "Point", "coordinates": [-39.1166802861415, -69.50404976987132]}}, {"type": "Feature", "properties": {"norad_id": 38709, "name": "EXACTVIEW-1 (ADS-1B)", "group": "resource", "lat": 29.310587633999738, "lon": 86.4712328293384, "alt_km": 800.2609820613388, "timestamp": "2025-12-09T05:43:20.384645+00:00", "meta": {"OBJECT_NAME": "EXACTVIEW-1 (ADS-1B)", "OBJECT_ID": "2012-039C", "EPOCH": "2025-12-08T19:28:19.351776", "MEAN_MOTION": 14.2490582, "ECCENTRICITY": 0.001088, "INCLINATION": 98.9636, "RA_OF_ASC_NODE": 91.119, "ARG_OF_PERICENTER": 5.6086, "MEAN_ANOMALY": 354.5212, "EPHEMERIS_TYPE": 0, "CLASSIFICATION_TYPE": "U", "NORAD_CAT_ID": 38709, "ELEMENT_SET_NO": 999, "REV_AT_EPOCH": 69559, "BSTAR": 0.00017296, "MEAN_MOTION_DOT": 3.58e-06, "MEAN_MOTION_DDOT": 0}, "tle": {"line1": "1 38709U 12039C   25342.81133509  .00000358  00000+0  17296-3 0  9991", "line2": "2 38709  98.9636  91.1190 0010880   5.6086 354.5212 14.24905820695594"}}, "geometry": {"type": "Point", "coordinates": [86.4712328293384, 29.310587633999738]}}]}